CCSDS_OMM_VERS = 2.0
CREATION_DATE  = 
ORIGINATOR     = 

OBJECT_NAME    = IDEFIX & ARIANE 42P R/B
OBJECT_ID      = 2002-021B
CENTER_NAME    = EARTH
REF_FRAME      = TEME
TIME_SYSTEM    = UTC
MEAN_ELEMENT_THEORY = SGP/SGP4

EPOCH          = 2026-02-25T06:14:09.004416
MEAN_MOTION    = 14.31016053
ECCENTRICITY   = .00109218
INCLINATION    = 98.5857
RA_OF_ASC_NODE = 355.0158
ARG_OF_PERICENTER = 220.5424
MEAN_ANOMALY   = 139.4946

EPHEMERIS_TYPE = 0
CLASSIFICATION_TYPE = U
NORAD_CAT_ID   = 27422
ELEMENT_SET_NO = 999
REV_AT_EPOCH   = 24224
BSTAR          = .11721692E-3
MEAN_MOTION_DOT = .265E-5
MEAN_MOTION_DDOT = 0

CCSDS_OMM_VERS = 2.0
CREATION_DATE  = 
ORIGINATOR     = 

OBJECT_NAME    = AQUA
OBJECT_ID      = 2002-022A
CENTER_NAME    = EARTH
REF_FRAME      = TEME
TIME_SYSTEM    = UTC
MEAN_ELEMENT_THEORY = SGP/SGP4

EPOCH          = 2026-02-25T05:42:46.440864
MEAN_MOTION    = 14.61941816
ECCENTRICITY   = .00008897
INCLINATION    = 98.4151
RA_OF_ASC_NODE = 23.3785
ARG_OF_PERICENTER = 48.9835
MEAN_ANOMALY   = 64.1340

EPHEMERIS_TYPE = 0
CLASSIFICATION_TYPE = U
NORAD_CAT_ID   = 27424
ELEMENT_SET_NO = 999
REV_AT_EPOCH   = 26691
BSTAR          = .21650577E-3
MEAN_MOTION_DOT = .1035E-4
MEAN_MOTION_DDOT = 0

CCSDS_OMM_VERS = 2.0
CREATION_DATE  = 
ORIGINATOR     = 

OBJECT_NAME    = CZ-4B R/B
OBJECT_ID      = 2002-024C
CENTER_NAME    = EARTH
REF_FRAME      = TEME
TIME_SYSTEM    = UTC
MEAN_ELEMENT_THEORY = SGP/SGP4

EPOCH          = 2026-02-25T02:53:21.741792
MEAN_MOTION    = 14.14545069
ECCENTRICITY   = .00509993
INCLINATION    = 98.8870
RA_OF_ASC_NODE = 109.5888
ARG_OF_PERICENTER = 59.4948
MEAN_ANOMALY   = 320.7455

EPHEMERIS_TYPE = 0
CLASSIFICATION_TYPE = U
NORAD_CAT_ID   = 27432
ELEMENT_SET_NO = 999
REV_AT_EPOCH   = 22746
BSTAR          = .36760813E-4
MEAN_MOTION_DOT = .27E-6
MEAN_MOTION_DDOT = 0

CCSDS_OMM_VERS = 2.0
CREATION_DATE  = 
ORIGINATOR     = 

OBJECT_NAME    = MIDORI II (ADEOS-II)
OBJECT_ID      = 2002-056A
CENTER_NAME    = EARTH
REF_FRAME      = TEME
TIME_SYSTEM    = UTC
MEAN_ELEMENT_THEORY = SGP/SGP4

EPOCH          = 2026-02-25T03:11:13.675488
MEAN_MOTION    = 14.29273949
ECCENTRICITY   = .0001977
INCLINATION    = 98.7746
RA_OF_ASC_NODE = 14.5257
ARG_OF_PERICENTER = 60.4867
MEAN_ANOMALY   = 299.6511

EPHEMERIS_TYPE = 0
CLASSIFICATION_TYPE = U
NORAD_CAT_ID   = 27597
ELEMENT_SET_NO = 999
REV_AT_EPOCH   = 20850
BSTAR          = .11054628E-3
MEAN_MOTION_DOT = .236E-5
MEAN_MOTION_DDOT = 0

CCSDS_OMM_VERS = 2.0
CREATION_DATE  = 
ORIGINATOR     = 

OBJECT_NAME    = H-2A R/B
OBJECT_ID      = 2002-056E
CENTER_NAME    = EARTH
REF_FRAME      = TEME
TIME_SYSTEM    = UTC
MEAN_ELEMENT_THEORY = SGP/SGP4

EPOCH          = 2026-02-25T03:19:44.281344
MEAN_MOTION    = 14.33750998
ECCENTRICITY   = .0069715
INCLINATION    = 98.3178
RA_OF_ASC_NODE = 16.9840
ARG_OF_PERICENTER = 198.1032
MEAN_ANOMALY   = 187.2472

EPHEMERIS_TYPE = 0
CLASSIFICATION_TYPE = U
NORAD_CAT_ID   = 27601
ELEMENT_SET_NO = 999
REV_AT_EPOCH   = 21231
BSTAR          = .10325822E-3
MEAN_MOTION_DOT = .253E-5
MEAN_MOTION_DDOT = 0

CCSDS_OMM_VERS = 2.0
CREATION_DATE  = 
ORIGINATOR     = 

OBJECT_NAME    = CZ-4B R/B
OBJECT_ID      = 2003-049C
CENTER_NAME    = EARTH
REF_FRAME      = TEME
TIME_SYSTEM    = UTC
MEAN_ELEMENT_THEORY = SGP/SGP4

EPOCH          = 2026-02-24T22:28:33.175776
MEAN_MOTION    = 14.55005157
ECCENTRICITY   = .0046993
INCLINATION    = 98.6867
RA_OF_ASC_NODE = 50.3424
ARG_OF_PERICENTER = 270.7342
MEAN_ANOMALY   = 88.8470

EPHEMERIS_TYPE = 0
CLASSIFICATION_TYPE = U
NORAD_CAT_ID   = 28059
ELEMENT_SET_NO = 999
REV_AT_EPOCH   = 18474
BSTAR          = .96499E-4
MEAN_MOTION_DOT = .369E-5
MEAN_MOTION_DDOT = 0

CCSDS_OMM_VERS = 2.0
CREATION_DATE  = 
ORIGINATOR     = 

OBJECT_NAME    = CZ-2C R/B
OBJECT_ID      = 2004-012C
CENTER_NAME    = EARTH
REF_FRAME      = TEME
TIME_SYSTEM    = UTC
MEAN_ELEMENT_THEORY = SGP/SGP4

EPOCH          = 2026-02-25T03:07:37.771392
MEAN_MOTION    = 15.62913951
ECCENTRICITY   = .00139456
INCLINATION    = 97.7262
RA_OF_ASC_NODE = 120.2468
ARG_OF_PERICENTER = 0.1360
MEAN_ANOMALY   = 359.9899

EPHEMERIS_TYPE = 0
CLASSIFICATION_TYPE = U
NORAD_CAT_ID   = 28222
ELEMENT_SET_NO = 999
REV_AT_EPOCH   = 20231
BSTAR          = .49181645E-3
MEAN_MOTION_DOT = .44691E-3
MEAN_MOTION_DDOT = 0

CCSDS_OMM_VERS = 2.0
CREATION_DATE  = 
ORIGINATOR     = 

OBJECT_NAME    = SL-16 R/B
OBJECT_ID      = 2004-021B
CENTER_NAME    = EARTH
REF_FRAME      = TEME
TIME_SYSTEM    = UTC
MEAN_ELEMENT_THEORY = SGP/SGP4

EPOCH          = 2026-02-25T00:16:43.863456
MEAN_MOTION    = 14.14599157
ECCENTRICITY   = .00033959
INCLINATION    = 70.9989
RA_OF_ASC_NODE = 259.1002
ARG_OF_PERICENTER = 38.5046
MEAN_ANOMALY   = 321.6318

EPHEMERIS_TYPE = 0
CLASSIFICATION_TYPE = U
NORAD_CAT_ID   = 28353
ELEMENT_SET_NO = 999
REV_AT_EPOCH   = 12104
BSTAR          = .7792642E-4
MEAN_MOTION_DOT = .102E-5
MEAN_MOTION_DDOT = 0

CCSDS_OMM_VERS = 2.0
CREATION_DATE  = 
ORIGINATOR     = 

OBJECT_NAME    = CZ-4B R/B
OBJECT_ID      = 2004-035C
CENTER_NAME    = EARTH
REF_FRAME      = TEME
TIME_SYSTEM    = UTC
MEAN_ELEMENT_THEORY = SGP/SGP4

EPOCH          = 2026-02-25T01:57:30.473280
MEAN_MOTION    = 15.28803002
ECCENTRICITY   = .00325921
INCLINATION    = 97.3529
RA_OF_ASC_NODE = 90.4769
ARG_OF_PERICENTER = 16.7322
MEAN_ANOMALY   = 343.4985

EPHEMERIS_TYPE = 0
CLASSIFICATION_TYPE = U
NORAD_CAT_ID   = 28415
ELEMENT_SET_NO = 999
REV_AT_EPOCH   = 17798
BSTAR          = .2579931E-3
MEAN_MOTION_DOT = .726E-4
MEAN_MOTION_DDOT = 0

CCSDS_OMM_VERS = 2.0
CREATION_DATE  = 
ORIGINATOR     = 

OBJECT_NAME    = CZ-2C R/B
OBJECT_ID      = 2004-046B
CENTER_NAME    = EARTH
REF_FRAME      = TEME
TIME_SYSTEM    = UTC
MEAN_ELEMENT_THEORY = SGP/SGP4

EPOCH          = 2026-02-25T06:50:11.452128
MEAN_MOTION    = 14.26987429
ECCENTRICITY   = .01391279
INCLINATION    = 98.1989
RA_OF_ASC_NODE = 332.0401
ARG_OF_PERICENTER = 191.0883
MEAN_ANOMALY   = 168.7225

EPHEMERIS_TYPE = 0
CLASSIFICATION_TYPE = U
NORAD_CAT_ID   = 28480
ELEMENT_SET_NO = 999
REV_AT_EPOCH   = 10673
BSTAR          = .56176756E-4
MEAN_MOTION_DOT = .11E-5
MEAN_MOTION_DDOT = 0

CCSDS_OMM_VERS = 2.0
CREATION_DATE  = 
ORIGINATOR     = 

OBJECT_NAME    = ARIANE 5 R/B
OBJECT_ID      = 2004-049H
CENTER_NAME    = EARTH
REF_FRAME      = TEME
TIME_SYSTEM    = UTC
MEAN_ELEMENT_THEORY = SGP/SGP4

EPOCH          = 2026-02-24T16:44:54.201984
MEAN_MOTION    = 14.85237929
ECCENTRICITY   = .00848532
INCLINATION    = 98.2606
RA_OF_ASC_NODE = 223.6706
ARG_OF_PERICENTER = 33.9362
MEAN_ANOMALY   = 326.7240

EPHEMERIS_TYPE = 0
CLASSIFICATION_TYPE = U
NORAD_CAT_ID   = 28499
ELEMENT_SET_NO = 999
REV_AT_EPOCH   = 14386
BSTAR          = .95475659E-4
MEAN_MOTION_DOT = .809E-5
MEAN_MOTION_DDOT = 0

CCSDS_OMM_VERS = 2.0
CREATION_DATE  = 
ORIGINATOR     = 

OBJECT_NAME    = CZ-2D R/B
OBJECT_ID      = 2005-024B
CENTER_NAME    = EARTH
REF_FRAME      = TEME
TIME_SYSTEM    = UTC
MEAN_ELEMENT_THEORY = SGP/SGP4

EPOCH          = 2026-02-25T00:06:36.236448
MEAN_MOTION    = 15.58898112
ECCENTRICITY   = .00074655
INCLINATION    = 97.3617
RA_OF_ASC_NODE = 70.6981
ARG_OF_PERICENTER = 76.9454
MEAN_ANOMALY   = 283.2635

EPHEMERIS_TYPE = 0
CLASSIFICATION_TYPE = U
NORAD_CAT_ID   = 28738
ELEMENT_SET_NO = 999
REV_AT_EPOCH   = 13780
BSTAR          = .46964304E-3
MEAN_MOTION_DOT = .36426E-3
MEAN_MOTION_DDOT = 0

